24967,IRIDIUM 36,1997,100.21,-1.0,-,86.39,Inactive,0,LEO,USA,USA,Unknown,Unknown,Unknown,1 24967U 97056C   24264.31691257  .00000928  00000+0  30641-3 0  9992,2 24967  86.3912 286.3446 0002351  96.7863 263.3602 14.37041761413455,14.37041761,0.0002351,LEO
25042,IRIDIUM 39,1997,99.42,-1.0,-,86.39,Inactive,0,LEO,USA,USA,Unknown,Unknown,Unknown,1 25042U 97069D   24264.43312341  .00001715  00000+0  45214-3 0  9995,2 25042  86.3938 326.7955 0020075 123.9210 236.3906 14.48357353409905,14.48357353,0.0020075,LEO
25043,IRIDIUM 38,1997,100.17,-1.0,-,86.4,Inactive,0,LEO,USA,USA,Unknown,Unknown,Unknown,1 25043U 97069E   24264.22444278  .00001251  00000+0  41124-3 0  9999,2 25043  86.4014 346.7417 0000422 137.0428 223.0802 14.37536103407162,14.37536103,4.22e-05,LEO
25077,IRIDIUM 42,1997,100.29,-1.0,-,86.4,Inactive,0,LEO,PRC,USA,Unknown,Unknown,Unknown,1 25077U 97077A   24264.52989514  .00001130  00000+0  38386-3 0  9997,2 25077  86.4025 352.4456 0001450  90.8304 269.3059 14.35813757402498,14.35813757,0.000145,LEO
25078,IRIDIUM 44,1997,100.02,-1.0,-,86.4,Inactive,0,LEO,PRC,USA,Unknown,Unknown,Unknown,1 25078U 97077B   24264.44438440  .00001118  00000+0  35141-3 0  9998,2 25078  86.3995 335.1386 0002597 137.8783 222.2615 14.39657518404886,14.39657518,0.0002597,LEO
25104,IRIDIUM 45,1997,95.48,-1.0,-,86.37,Inactive,0,LEO,USA,USA,Unknown,Unknown,Unknown,1 25104U 97082A   24264.21045865  .00020803  00000+0  10501-2 0  9998,2 25104  86.3720 177.5088 0144420 252.7605 105.7783 15.08238483411153,15.08238483,0.014442,LEO
25105,IRIDIUM 24,1997,99.9,-1.0,-,86.4,Inactive,0,LEO,USA,USA,Unknown,Unknown,Unknown,1 25105U 97082B   24264.55303413  .00001391  00000+0  42262-3 0  9993,2 25105  86.3978 194.5181 0009145 244.7930 115.2322 14.41474784404360,14.41474784,0.0009145,LEO
25262,IRIDIUM 51,1998,94.92,-1.0,-,86.4,Inactive,0,LEO,PRC,USA,Unknown,Unknown,Unknown,1 25262U 98018A   24263.83454667  .00025698  00000+0  10365-2 0  9999,2 25262  86.3999 187.1937 0130418 190.7026 169.1438 15.17087206405739,15.17087206,0.0130418,LEO
